[{"OBJECT_NAME":"SL-8 R/B","OBJECT_ID":"1991-006B","EPOCH":"2026-03-11T07:02:41.894880","MEAN_MOTION":13.77494512,"ECCENTRICITY":0.00229778,"INCLINATION":82.9466,"RA_OF_ASC_NODE":168.8537,"ARG_OF_PERICENTER":33.9469,"MEAN_ANOMALY":20.0604,"EPHEMERIS_TYPE":0,"CLASSIFICATION_TYPE":"U","NORAD_CAT_ID":21088,"ELEMENT_SET_NO":999,"REV_AT_EPOCH":76429,"BSTAR":6.5424519e-5,"MEAN_MOTION_DOT":8.1e-7,"MEAN_MOTION_DDOT":0},{"OBJECT_NAME":"OKEAN-3","OBJECT_ID":"1991-039A","EPOCH":"2026-03-11T05:00:06.342336","MEAN_MOTION":15.04818805,"ECCENTRICITY":0.00138353,"INCLINATION":82.5194,"RA_OF_ASC_NODE":335.3724,"ARG_OF_PERICENTER":332.2989,"MEAN_ANOMALY":27.7499,"EPHEMERIS_TYPE":0,"CLASSIFICATION_TYPE":"U","NORAD_CAT_ID":21397,"ELEMENT_SET_NO":999,"REV_AT_EPOCH":86526,"BSTAR":0.00030637918,"MEAN_MOTION_DOT":4.361e-5,"MEAN_MOTION_DDOT":0},{"OBJECT_NAME":"COSMOS 2151","OBJECT_ID":"1991-042A","EPOCH":"2026-03-11T06:49:17.726880","MEAN_MOTION":15.00110467,"ECCENTRICITY":0.00139499,"INCLINATION":82.4931,"RA_OF_ASC_NODE":82.1376,"ARG_OF_PERICENTER":59.0212,"MEAN_ANOMALY":301.238,"EPHEMERIS_TYPE":0,"CLASSIFICATION_TYPE":"U","NORAD_CAT_ID":21422,"ELEMENT_SET_NO":999,"REV_AT_EPOCH":86343,"BSTAR":0.00015321167,"MEAN_MOTION_DOT":1.94e-5,"MEAN_MOTION_DDOT":0},{"OBJECT_NAME":"SL-14 R/B","OBJECT_ID":"1991-042B","EPOCH":"2026-03-10T21:44:10.745952","MEAN_MOTION":14.81831051,"ECCENTRICITY":0.0015845,"INCLINATION":82.4926,"RA_OF_ASC_NODE":219.042,"ARG_OF_PERICENTER":234.3485,"MEAN_ANOMALY":125.6254,"EPHEMERIS_TYPE":0,"CLASSIFICATION_TYPE":"U","NORAD_CAT_ID":21423,"ELEMENT_SET_NO":999,"REV_AT_EPOCH":85325,"BSTAR":7.571e-5,"MEAN_MOTION_DOT":6.22e-6,"MEAN_MOTION_DDOT":0},{"OBJECT_NAME":"ERS-1","OBJECT_ID":"1991-050A","EPOCH":"2026-03-11T00:25:58.778688","MEAN_MOTION":14.39450493,"ECCENTRICITY":0.00316915,"INCLINATION":98.788,"RA_OF_ASC_NODE":88.286,"ARG_OF_PERICENTER":196.4716,"MEAN_ANOMALY":163.5444,"EPHEMERIS_TYPE":0,"CLASSIFICATION_TYPE":"U","NORAD_CAT_ID":21574,"ELEMENT_SET_NO":999,"REV_AT_EPOCH":81592,"BSTAR":0.00013440901,"MEAN_MOTION_DOT":3.74e-6,"MEAN_MOTION_DDOT":0},{"OBJECT_NAME":"ARIANE 40 R/B","OBJECT_ID":"1991-050F","EPOCH":"2026-03-11T01:34:48.012672","MEAN_MOTION":14.42894673,"ECCENTRICITY":0.0004269,"INCLINATION":98.2009,"RA_OF_ASC_NODE":122.2505,"ARG_OF_PERICENTER":78.2116,"MEAN_ANOMALY":281.9554,"EPHEMERIS_TYPE":0,"CLASSIFICATION_TYPE":"U","NORAD_CAT_ID":21610,"ELEMENT_SET_NO":999,"REV_AT_EPOCH":81919,"BSTAR":0.00011509794,"MEAN_MOTION_DOT":3.43e-6,"MEAN_MOTION_DDOT":0},{"OBJECT_NAME":"INTERCOSMOS 25","OBJECT_ID":"1991-086A","EPOCH":"2026-03-11T03:26:55.397472","MEAN_MOTION":12.1200393,"ECCENTRICITY":0.14869542,"INCLINATION":82.6047,"RA_OF_ASC_NODE":309.1297,"ARG_OF_PERICENTER":113.8002,"MEAN_ANOMALY":262.5874,"EPHEMERIS_TYPE":0,"CLASSIFICATION_TYPE":"U","NORAD_CAT_ID":21819,"ELEMENT_SET_NO":999,"REV_AT_EPOCH":49686,"BSTAR":0.00034317869,"MEAN_MOTION_DOT":1.787e-5,"MEAN_MOTION_DDOT":0},{"OBJECT_NAME":"SL-8 R/B","OBJECT_ID":"1992-008B","EPOCH":"2026-03-11T06:31:02.275968","MEAN_MOTION":13.75969828,"ECCENTRICITY":0.00355994,"INCLINATION":82.9222,"RA_OF_ASC_NODE":266.6013,"ARG_OF_PERICENTER":129.0547,"MEAN_ANOMALY":44.3989,"EPHEMERIS_TYPE":0,"CLASSIFICATION_TYPE":"U","NORAD_CAT_ID":21876,"ELEMENT_SET_NO":999,"REV_AT_EPOCH":70963,"BSTAR":-5.22137e-7,"MEAN_MOTION_DOT":1.5e-7,"MEAN_MOTION_DDOT":0},{"OBJECT_NAME":"SL-8 R/B","OBJECT_ID":"1992-020B","EPOCH":"2026-03-11T07:00:24.326208","MEAN_MOTION":13.75549719,"ECCENTRICITY":0.00276383,"INCLINATION":82.9334,"RA_OF_ASC_NODE":152.5721,"ARG_OF_PERICENTER":294.1459,"MEAN_ANOMALY":124.3175,"EPHEMERIS_TYPE":0,"CLASSIFICATION_TYPE":"U","NORAD_CAT_ID":21938,"ELEMENT_SET_NO":999,"REV_AT_EPOCH":70135,"BSTAR":5.5454341e-5,"MEAN_MOTION_DOT":6.8e-7,"MEAN_MOTION_DDOT":0},{"OBJECT_NAME":"USA 81","OBJECT_ID":"1992-023A","EPOCH":"2026-03-11T06:22:22.040832","MEAN_MOTION":14.32368535,"ECCENTRICITY":0.00024147,"INCLINATION":85.0082,"RA_OF_ASC_NODE":130.5321,"ARG_OF_PERICENTER":76.6973,"MEAN_ANOMALY":283.4489,"EPHEMERIS_TYPE":0,"CLASSIFICATION_TYPE":"U","NORAD_CAT_ID":21949,"ELEMENT_SET_NO":999,"REV_AT_EPOCH":9501,"BSTAR":6.0309563e-5,"MEAN_MOTION_DOT":1.83e-6,"MEAN_MOTION_DDOT":0},{"OBJECT_NAME":"COSMOS 2219","OBJECT_ID":"1992-076A","EPOCH":"2026-03-11T06:56:48.581088","MEAN_MOTION":14.14093035,"ECCENTRICITY":0.00189065,"INCLINATION":71.0638,"RA_OF_ASC_NODE":14.7233,"ARG_OF_PERICENTER":204.8578,"MEAN_ANOMALY":155.1636,"EPHEMERIS_TYPE":0,"CLASSIFICATION_TYPE":"U","NORAD_CAT_ID":22219,"ELEMENT_SET_NO":999,"REV_AT_EPOCH":71860,"BSTAR":6.6280158e-5,"MEAN_MOTION_DOT":7.9e-7,"MEAN_MOTION_DDOT":0},{"OBJECT_NAME":"SL-16 R/B","OBJECT_ID":"1992-076B","EPOCH":"2026-03-11T07:29:56.641632","MEAN_MOTION":14.16859323,"ECCENTRICITY":0.00104568,"INCLINATION":71.0009,"RA_OF_ASC_NODE":184.9555,"ARG_OF_PERICENTER":93.4655,"MEAN_ANOMALY":287.3581,"EPHEMERIS_TYPE":0,"CLASSIFICATION_TYPE":"U","NORAD_CAT_ID":22220,"ELEMENT_SET_NO":999,"REV_AT_EPOCH":72206,"BSTAR":-6.0952145e-5,"MEAN_MOTION_DOT":-1.7e-6,"MEAN_MOTION_DDOT":0},{"OBJECT_NAME":"COSMOS 2221","OBJECT_ID":"1992-080A","EPOCH":"2026-03-11T01:00:11.473344","MEAN_MOTION":14.96206244,"ECCENTRICITY":0.00141713,"INCLINATION":82.5012,"RA_OF_ASC_NODE":277.7855,"ARG_OF_PERICENTER":182.373,"MEAN_ANOMALY":177.7428,"EPHEMERIS_TYPE":0,"CLASSIFICATION_TYPE":"U","NORAD_CAT_ID":22236,"ELEMENT_SET_NO":999,"REV_AT_EPOCH":78099,"BSTAR":0.00019891983,"MEAN_MOTION_DOT":2.272e-5,"MEAN_MOTION_DDOT":0},{"OBJECT_NAME":"SL-16 R/B","OBJECT_ID":"1992-093B","EPOCH":"2026-03-11T05:21:56.677824","MEAN_MOTION":14.15447453,"ECCENTRICITY":0.00063898,"INCLINATION":71.0242,"RA_OF_ASC_NODE":1.0459,"ARG_OF_PERICENTER":292.1211,"MEAN_ANOMALY":67.9233,"EPHEMERIS_TYPE":0,"CLASSIFICATION_TYPE":"U","NORAD_CAT_ID":22285,"ELEMENT_SET_NO":999,"REV_AT_EPOCH":71337,"BSTAR":-6.7911566e-5,"MEAN_MOTION_DOT":-1.8e-6,"MEAN_MOTION_DDOT":0},{"OBJECT_NAME":"COSMOS 2228","OBJECT_ID":"1992-094A","EPOCH":"2026-03-11T06:11:10.861440","MEAN_MOTION":14.97199028,"ECCENTRICITY":0.00167371,"INCLINATION":82.5158,"RA_OF_ASC_NODE":235.8087,"ARG_OF_PERICENTER":299.0953,"MEAN_ANOMALY":60.8593,"EPHEMERIS_TYPE":0,"CLASSIFICATION_TYPE":"U","NORAD_CAT_ID":22286,"ELEMENT_SET_NO":999,"REV_AT_EPOCH":77629,"BSTAR":0.00026069014,"MEAN_MOTION_DOT":3.048e-5,"MEAN_MOTION_DDOT":0},{"OBJECT_NAME":"SL-16 R/B","OBJECT_ID":"1993-016B","EPOCH":"2026-03-10T20:09:43.348320","MEAN_MOTION":14.1530906,"ECCENTRICITY":0.00118774,"INCLINATION":71.0075,"RA_OF_ASC_NODE":212.7643,"ARG_OF_PERICENTER":312.5676,"MEAN_ANOMALY":47.4444,"EPHEMERIS_TYPE":0,"CLASSIFICATION_TYPE":"U","NORAD_CAT_ID":22566,"ELEMENT_SET_NO":999,"REV_AT_EPOCH":70233,"BSTAR":5.7279863e-5,"MEAN_MOTION_DOT":6.4e-7,"MEAN_MOTION_DDOT":0},{"OBJECT_NAME":"COSMOS 2242","OBJECT_ID":"1993-024A","EPOCH":"2026-03-11T00:57:37.770336","MEAN_MOTION":14.96555226,"ECCENTRICITY":0.00151038,"INCLINATION":82.5156,"RA_OF_ASC_NODE":265.4245,"ARG_OF_PERICENTER":303.9391,"MEAN_ANOMALY":56.0394,"EPHEMERIS_TYPE":0,"CLASSIFICATION_TYPE":"U","NORAD_CAT_ID":22626,"ELEMENT_SET_NO":999,"REV_AT_EPOCH":78059,"BSTAR":0.00017670624,"MEAN_MOTION_DOT":2.039e-5,"MEAN_MOTION_DDOT":0}]
